{
  "type": "FeatureCollection",
  "features": [
    {
      "type": "Feature",
      "properties": {
        "norad_id": 43208,
        "name": "BEIDOU-3 M3 (C21)",
        "group": "beidou",
        "lat": 48.39769768924909,
        "lon": 117.81590371008677,
        "alt_km": 21527.15170629441,
        "timestamp": "2025-12-03T08:58:46.265011+00:00",
        "meta_object_name": "BEIDOU-3 M3 (C21)",
        "meta_object_id": "2018-018B",
        "meta_epoch": "2025-12-02T17:48:44.716608",
        "meta_mean_motion": 1.86230878,
        "meta_eccentricity": 0.0006254,
        "meta_inclination": 56.4767,
        "meta_ra_of_asc_node": 69.6397,
        "meta_arg_of_pericenter": 317.6191,
        "meta_mean_anomaly": 42.3346,
        "meta_ephemeris_type": 0,
        "meta_classification_type": "U",
        "meta_norad_cat_id": 43208,
        "meta_element_set_no": 999,
        "meta_rev_at_epoch": 5308,
        "meta_bstar": 0,
        "meta_mean_motion_dot": -4.7e-07,
        "meta_mean_motion_ddot": 0,
        "tle_line1": "1 43208U 18018B   25336.74218422 -.00000047  00000+0  00000+0 0  9994",
        "tle_line2": "2 43208  56.4767  69.6397 0006254 317.6191  42.3346  1.86230878 53080"
      },
      "geometry": {
        "type": "Point",
        "coordinates": [
          117.81590371008677,
          48.39769768924909
        ]
      }
    },
    {
      "type": "Feature",
      "properties": {
        "norad_id": 43245,
        "name": "BEIDOU-3 M9 (C29)",
        "group": "beidou",
        "lat": -53.432265392696785,
        "lon": -128.30197818286058,
        "alt_km": 21529.12601445291,
        "timestamp": "2025-12-03T08:58:46.265030+00:00",
        "meta_object_name": "BEIDOU-3 M9 (C29)",
        "meta_object_id": "2018-029A",
        "meta_epoch": "2025-12-01T08:20:14.784576",
        "meta_mean_motion": 1.86227904,
        "meta_eccentricity": 0.00017985,
        "meta_inclination": 54.3765,
        "meta_ra_of_asc_node": 306.8658,
        "meta_arg_of_pericenter": 272.1738,
        "meta_mean_anomaly": 87.7976,
        "meta_ephemeris_type": 0,
        "meta_classification_type": "U",
        "meta_norad_cat_id": 43245,
        "meta_element_set_no": 999,
        "meta_rev_at_epoch": 5221,
        "meta_bstar": 0,
        "meta_mean_motion_dot": -5.8e-07,
        "meta_mean_motion_ddot": 0,
        "tle_line1": "1 43245U 18029A   25335.34739334 -.00000058  00000+0  00000+0 0  9994",
        "tle_line2": "2 43245  54.3765 306.8658 0001798 272.1738  87.7976  1.86227904 52214"
      },
      "geometry": {
        "type": "Point",
        "coordinates": [
          -128.30197818286058,
          -53.432265392696785
        ]
      }
    },
    {
      "type": "Feature",
      "properties": {
        "norad_id": 43246,
        "name": "BEIDOU-3 M10 (C30)",
        "group": "beidou",
        "lat": -29.894550061336602,
        "lon": -77.53686526733006,
        "alt_km": 21523.25538738572,
        "timestamp": "2025-12-03T08:58:46.265050+00:00",
        "meta_object_name": "BEIDOU-3 M10 (C30)",
        "meta_object_id": "2018-029B",
        "meta_epoch": "2025-12-01T06:47:05.876160",
        "meta_mean_motion": 1.86228878,
        "meta_eccentricity": 0.0003946,
        "meta_inclination": 54.3738,
        "meta_ra_of_asc_node": 306.8948,
        "meta_arg_of_pericenter": 359.0854,
        "meta_mean_anomaly": 0.9061,
        "meta_ephemeris_type": 0,
        "meta_classification_type": "U",
        "meta_norad_cat_id": 43246,
        "meta_element_set_no": 999,
        "meta_rev_at_epoch": 5219,
        "meta_bstar": 0,
        "meta_mean_motion_dot": -5.7e-07,
        "meta_mean_motion_ddot": 0,
        "tle_line1": "1 43246U 18029B   25335.28270690 -.00000057  00000+0  00000+0 0  9992",
        "tle_line2": "2 43246  54.3738 306.8948 0003946 359.0854   0.9061  1.86228878 52198"
      },
      "geometry": {
        "type": "Point",
        "coordinates": [
          -77.53686526733006,
          -29.894550061336602
        ]
      }
    },
    {
      "type": "Feature",
      "properties": {
        "norad_id": 43539,
        "name": "BEIDOU-2 IGSO-7 (C16)",
        "group": "beidou",
        "lat": 22.076208636983527,
        "lon": -31.676761485104038,
        "alt_km": 35733.10077579754,
        "timestamp": "2025-12-03T08:58:46.265071+00:00",
        "meta_object_name": "BEIDOU-2 IGSO-7 (C16)",
        "meta_object_id": "2018-057A",
        "meta_epoch": "2025-12-02T22:52:29.161056",
        "meta_mean_motion": 1.0025968,
        "meta_eccentricity": 0.0092476,
        "meta_inclination": 55.1727,
        "meta_ra_of_asc_node": 164.7578,
        "meta_arg_of_pericenter": 235.1616,
        "meta_mean_anomaly": 126.6896,
        "meta_ephemeris_type": 0,
        "meta_classification_type": "U",
        "meta_norad_cat_id": 43539,
        "meta_element_set_no": 999,
        "meta_rev_at_epoch": 2716,
        "meta_bstar": 0,
        "meta_mean_motion_dot": -2.1e-07,
        "meta_mean_motion_ddot": 0,
        "tle_line1": "1 43539U 18057A   25336.95311529 -.00000021  00000+0  00000+0 0  9991",
        "tle_line2": "2 43539  55.1727 164.7578 0092476 235.1616 126.6896  1.00259680 27168"
      },
      "geometry": {
        "type": "Point",
        "coordinates": [
          -31.676761485104038,
          22.076208636983527
        ]
      }
    },
    {
      "type": "Feature",
      "properties": {
        "norad_id": 43581,
        "name": "BEIDOU-3 M5 (C23)",
        "group": "beidou",
        "lat": 6.837767588050015,
        "lon": 3.986677833420261,
        "alt_km": 21533.569937607568,
        "timestamp": "2025-12-03T08:58:46.265092+00:00",
        "meta_object_name": "BEIDOU-3 M5 (C23)",
        "meta_object_id": "2018-062A",
        "meta_epoch": "2025-11-30T23:17:32.661024",
        "meta_mean_motion": 1.8622853,
        "meta_eccentricity": 0.0002124,
        "meta_inclination": 54.0891,
        "meta_ra_of_asc_node": 189.0442,
        "meta_arg_of_pericenter": 349.7703,
        "meta_mean_anomaly": 10.3183,
        "meta_ephemeris_type": 0,
        "meta_classification_type": "U",
        "meta_norad_cat_id": 43581,
        "meta_element_set_no": 999,
        "meta_rev_at_epoch": 4994,
        "meta_bstar": 0,
        "meta_mean_motion_dot": 1.17e-06,
        "meta_mean_motion_ddot": 0,
        "tle_line1": "1 43581U 18062A   25334.97051691  .00000117  00000+0  00000+0 0  9990",
        "tle_line2": "2 43581  54.0891 189.0442 0002124 349.7703  10.3183  1.86228530 49947"
      },
      "geometry": {
        "type": "Point",
        "coordinates": [
          3.986677833420261,
          6.837767588050015
        ]
      }
    },
    {
      "type": "Feature",
      "properties": {
        "norad_id": 43582,
        "name": "BEIDOU-3 M6 (C24)",
        "group": "beidou",
        "lat": -53.53580221676973,
        "lon": 87.64994577198489,
        "alt_km": 21550.850654311456,
        "timestamp": "2025-12-03T08:58:46.265112+00:00",
        "meta_object_name": "BEIDOU-3 M6 (C24)",
        "meta_object_id": "2018-062B",
        "meta_epoch": "2025-11-29T18:14:01.707936",
        "meta_mean_motion": 1.86229617,
        "meta_eccentricity": 0.00076529,
        "meta_inclination": 54.0888,
        "meta_ra_of_asc_node": 189.0746,
        "meta_arg_of_pericenter": 45.4041,
        "meta_mean_anomaly": 314.7474,
        "meta_ephemeris_type": 0,
        "meta_classification_type": "U",
        "meta_norad_cat_id": 43582,
        "meta_element_set_no": 999,
        "meta_rev_at_epoch": 4992,
        "meta_bstar": 0,
        "meta_mean_motion_dot": 1.07e-06,
        "meta_mean_motion_ddot": 0,
        "tle_line1": "1 43582U 18062B   25333.75974199  .00000107  00000+0  00000+0 0  9992",
        "tle_line2": "2 43582  54.0888 189.0746 0007652  45.4041 314.7474  1.86229617 49926"
      },
      "geometry": {
        "type": "Point",
        "coordinates": [
          87.64994577198489,
          -53.53580221676973
        ]
      }
    },
    {
      "type": "Feature",
      "properties": {
        "norad_id": 43602,
        "name": "BEIDOU-3 M12 (C26)",
        "group": "beidou",
        "lat": -41.616729152071294,
        "lon": 147.78271331867964,
        "alt_km": 21535.712150298878,
        "timestamp": "2025-12-03T08:58:46.265133+00:00",
        "meta_object_name": "BEIDOU-3 M12 (C26)",
        "meta_object_id": "2018-067A",
        "meta_epoch": "2025-12-02T09:10:25.264704",
        "meta_mean_motion": 1.86227619,
        "meta_eccentricity": 0.00091452,
        "meta_inclination": 54.1831,
        "meta_ra_of_asc_node": 187.7149,
        "meta_arg_of_pericenter": 40.4724,
        "meta_mean_anomaly": 319.6904,
        "meta_ephemeris_type": 0,
        "meta_classification_type": "U",
        "meta_norad_cat_id": 43602,
        "meta_element_set_no": 999,
        "meta_rev_at_epoch": 4945,
        "meta_bstar": 0,
        "meta_mean_motion_dot": 1.22e-06,
        "meta_mean_motion_ddot": 0,
        "tle_line1": "1 43602U 18067A   25336.38223686  .00000122  00000+0  00000+0 0  9997",
        "tle_line2": "2 43602  54.1831 187.7149 0009145  40.4724 319.6904  1.86227619 49452"
      },
      "geometry": {
        "type": "Point",
        "coordinates": [
          147.78271331867964,
          -41.616729152071294
        ]
      }
    }
  ]
}